{"type":"FeatureCollection","features":[{"type":"Feature","properties":{},"geometry":{"type":"LineString","coordinates":[[-71.7792,19.7182],[-71.7574,19.6882],[-71.7115,19.4866],[-71.707,19.422],[-71.7532,19.3245],[-71.7465,19.2859],[-71.6472,19.196],[-71.6453,19.1635],[-71.657,19.1307],[-71.7421,19.0455],[-71.8071,18.987],[-71.7864,18.92],[-71.7336,18.8564],[-71.7271,18.8032],[-71.7432,18.7329],[-71.8242,18.6455],[-71.8665,18.6142],[-71.9869,18.6103],[-72.0004,18.5979],[-71.9404,18.5126],[-71.8726,18.4162],[-71.7619,18.3413],[-71.7372,18.2708],[-71.7638,18.204],[-71.7683,18.0392]]}},{"type":"Feature","properties":{},"geometry":{"type":"LineString","coordinates":[[-90.0952,13.7365],[-90.1059,13.783],[-90.1048,13.8348],[-90.0482,13.9041],[-89.9427,13.9974],[-89.8727,14.0456],[-89.84,14.0551],[-89.7937,14.0501],[-89.7493,14.077],[-89.7111,14.1413],[-89.6713,14.1827],[-89.5703,14.2247],[-89.5472,14.2413],[-89.555,14.2773],[-89.5769,14.3471],[-89.5736,14.3901],[-89.5405,14.4099],[-89.5009,14.4138],[-89.4188,14.4311],[-89.3832,14.4276],[-89.3626,14.416]]}},{"type":"Feature","properties":{},"geometry":{"type":"LineString","coordinates":[[-89.3626,14.416],[-89.3373,14.4114],[-89.1701,14.3603],[-89.1205,14.3702],[-89.0571,14.3292],[-89.0269,14.297],[-89.0002,14.2527],[-88.8683,14.1637],[-88.846,14.1248],[-88.7474,14.0723],[-88.7076,14.0321],[-88.6656,14.0155],[-88.5831,14.0001],[-88.5125,13.979],[-88.5043,13.9642],[-88.4976,13.9045],[-88.4827,13.8542],[-88.4491,13.851],[-88.4085,13.8754],[-88.2762,13.9427],[-88.151,13.9873],[-88.0805,13.9606],[-88.0387,13.9046],[-87.991,13.8796],[-87.892,13.895],[-87.8023,13.89],[-87.7315,13.8411],[-87.7153,13.8127],[-87.7585,13.6499],[-87.7742,13.5803],[-87.7819,13.5214],[-87.7565,13.506],[-87.7317,13.4831],[-87.737,13.4514],[-87.8142,13.3992]]}},{"type":"Feature","properties":{},"geometry":{"type":"LineString","coordinates":[[-87.3373,12.9793],[-87.0592,12.9915],[-87.0093,13.0078],[-86.9589,13.0537],[-86.9332,13.1175],[-86.9288,13.1794],[-86.9182,13.2236],[-86.8736,13.2665],[-86.7921,13.2798],[-86.7293,13.2844],[-86.7107,13.3134],[-86.7296,13.4072],[-86.7635,13.6352],[-86.7706,13.6988],[-86.759,13.7461],[-86.7336,13.7635],[-86.6102,13.7749],[-86.3769,13.7556],[-86.3318,13.7701],[-86.2382,13.8995],[-86.1512,13.9946],[-86.0892,14.0372],[-86.0404,14.0502],[-85.9838,13.9657],[-85.7867,13.8445],[-85.7534,13.852],[-85.7339,13.8587],[-85.7277,13.8761],[-85.7312,13.9319],[-85.6819,13.9826],[-85.5798,14.0282],[-85.4771,14.1087],[-85.3738,14.2239],[-85.2842,14.2916],[-85.2083,14.3118],[-85.1795,14.3433],[-85.1976,14.386],[-85.1915,14.4466],[-85.1613,14.5252],[-85.1173,14.5706],[-85.0594,14.583],[-85.0365,14.6077],[-85.0487,14.6447],[-85.0373,14.6856],[-84.9851,14.7524],[-84.8604,14.8097],[-84.7892,14.7904],[-84.7298,14.7134],[-84.646,14.6611],[-84.5377,14.6334],[-84.4535,14.6437],[-84.3937,14.6918],[-84.3398,14.7063],[-84.2919,14.6874],[-84.2667,14.6981],[-84.264,14.7385],[-84.2392,14.7478],[-84.1924,14.726],[-84.1508,14.7204],[-84.1144,14.731],[-84.1003,14.7506],[-84.0929,14.7709],[-84.0658,14.7861],[-83.9723,14.7711],[-83.8673,14.7945],[-83.7509,14.8563],[-83.6736,14.8836],[-83.6355,14.8764],[-83.5897,14.9076],[-83.5365,14.977],[-83.415,15.0081],[-83.1575,14.9931]]}},{"type":"Feature","properties":{},"geometry":{"type":"LineString","coordinates":[[-88.2283,15.729],[-88.2714,15.6949],[-88.3645,15.616],[-88.5333,15.4812],[-88.6845,15.3605],[-88.8299,15.251],[-88.961,15.1525],[-88.9764,15.1427],[-89.1426,15.0723],[-89.1703,15.0399],[-89.2061,14.9006],[-89.2224,14.8661],[-89.1922,14.7887],[-89.1622,14.6693],[-89.1718,14.6069],[-89.2867,14.53],[-89.3394,14.4607],[-89.3626,14.416]]}},{"type":"Feature","properties":{},"geometry":{"type":"LineString","coordinates":[[-77.3742,8.6583],[-77.3931,8.6447],[-77.4483,8.5659],[-77.4785,8.4984],[-77.4073,8.4272],[-77.3859,8.3517],[-77.3455,8.2695],[-77.2826,8.187],[-77.2123,8.0339],[-77.196,7.9725],[-77.216,7.9325],[-77.283,7.9081],[-77.3456,7.8366],[-77.3627,7.7491],[-77.3508,7.7058],[-77.5383,7.5663],[-77.5866,7.5431],[-77.6186,7.5646],[-77.6586,7.6346],[-77.7063,7.6912],[-77.732,7.7109],[-77.7469,7.7119],[-77.7619,7.6988],[-77.7688,7.6681],[-77.7439,7.537],[-77.7647,7.4837],[-77.8283,7.4428],[-77.9012,7.2294]]}},{"type":"Feature","properties":{},"geometry":{"type":"LineString","coordinates":[[-84.3483,10.9799],[-84.4018,10.9745],[-84.4892,10.9916],[-84.6342,11.0456],[-84.7012,11.0522],[-84.7974,11.0059],[-84.9092,10.9453],[-85.179,11.0399],[-85.3684,11.1065],[-85.5387,11.1663],[-85.5842,11.1894],[-85.6214,11.1845],[-85.6537,11.1531],[-85.6906,11.0975],[-85.7026,11.0815],[-85.7223,11.0663],[-85.7443,11.0621]]}},{"type":"Feature","properties":{},"geometry":{"type":"LineString","coordinates":[[-82.8794,8.0707],[-82.8833,8.1306],[-82.9129,8.1996],[-82.9484,8.2569],[-83.0234,8.316],[-83.0273,8.3377],[-82.9975,8.3678],[-82.8616,8.4535],[-82.8448,8.4894],[-82.8426,8.5639],[-82.8557,8.6353],[-82.917,8.7403],[-82.882,8.8053],[-82.8119,8.8574],[-82.74,8.8986],[-82.7278,8.916],[-82.7411,8.9517],[-82.7831,8.9903],[-82.8813,9.0559],[-82.9404,9.0601],[-82.9428,9.2489],[-82.9399,9.4492],[-82.925,9.469],[-82.8889,9.481],[-82.8601,9.5115],[-82.844,9.5708],[-82.801,9.5918],[-82.7234,9.5461],[-82.6441,9.5059],[-82.6113,9.5192],[-82.5865,9.5388],[-82.5692,9.5582],[-82.5636,9.5767]]}},{"type":"Feature","properties":{},"geometry":{"type":"LineString","coordinates":[[-66.876,1.223],[-66.8955,1.2899],[-66.8845,1.3582],[-66.9311,1.458],[-66.9584,1.5642],[-66.9815,1.6008],[-66.9881,1.6802],[-67.0439,1.8232],[-67.0895,1.9403],[-67.1314,1.9999],[-67.1138,2.0506],[-67.1314,2.1013],[-67.1655,2.1426],[-67.2152,2.2755],[-67.1976,2.3328],[-67.2108,2.3901],[-67.2528,2.4295],[-67.3122,2.4717],[-67.3916,2.5599],[-67.4864,2.6437],[-67.5349,2.6767],[-67.568,2.69],[-67.5967,2.7693],[-67.6187,2.7936],[-67.6672,2.8002],[-67.7665,2.8333],[-67.8591,2.7936],[-67.8613,2.8553],[-67.8348,2.8928],[-67.5148,3.1872],[-67.3536,3.3227],[-67.3363,3.3426],[-67.3222,3.374],[-67.3112,3.4159],[-67.3477,3.4638],[-67.4987,3.6911],[-67.5511,3.7338],[-67.6026,3.7688],[-67.6616,3.8643],[-67.7323,4.0865],[-67.7832,4.1982],[-67.7986,4.2839],[-67.7954,4.3807],[-67.8143,4.4551],[-67.8553,4.5069],[-67.8553,4.6655],[-67.8143,4.9308],[-67.8042,5.1325],[-67.8249,5.2705],[-67.7884,5.3755],[-67.6946,5.4475],[-67.6423,5.5588],[-67.6313,5.7094],[-67.5752,5.8331],[-67.4739,5.93],[-67.4394,6.0255],[-67.4716,6.1198],[-67.482,6.1803],[-67.5681,6.2418],[-67.7272,6.2849],[-67.8592,6.2899],[-67.9389,6.2419],[-68.1431,6.1975],[-68.4718,6.1565],[-68.7365,6.1568],[-68.9372,6.1982],[-69.0899,6.1844],[-69.1945,6.1153],[-69.2681,6.0997],[-69.3108,6.1376],[-69.3571,6.148],[-69.4271,6.124],[-69.4392,6.1349],[-69.5948,6.3215],[-69.739,6.4944],[-69.9042,6.7003],[-70.095,6.9379],[-70.1292,6.9536],[-70.1881,6.952],[-70.2661,6.9479],[-70.3875,6.9726],[-70.4707,7.0071],[-70.5355,7.0406],[-70.6551,7.0828],[-70.7371,7.0901],[-70.8107,7.0776],[-71.0133,6.9945],[-71.1286,6.9867],[-71.2178,6.9852],[-71.4572,7.0263],[-71.6209,7.0329],[-71.8113,7.0058],[-71.8927,6.9903],[-72.0066,7.0326],[-72.0843,7.0969],[-72.1567,7.2497],[-72.2077,7.3702],[-72.2963,7.3945],[-72.3946,7.4151],[-72.443,7.4549],[-72.472,7.5243],[-72.479,7.6132],[-72.4689,7.758],[-72.4596,7.8099],[-72.446,7.9661],[-72.3917,8.0477],[-72.3576,8.0873],[-72.3642,8.1528],[-72.3904,8.287],[-72.4166,8.382],[-72.5257,8.4897],[-72.6654,8.6276],[-72.7255,8.8483],[-72.7964,9.109],[-72.8521,9.1352],[-72.9045,9.1221],[-72.9601,9.1352],[-73.0093,9.24],[-73.0584,9.2596],[-73.1367,9.2228],[-73.1932,9.1941],[-73.3367,9.1679],[-73.3662,9.1941],[-73.3563,9.2269],[-73.2956,9.322],[-73.2243,9.4436],[-73.1413,9.5546],[-73.0641,9.6682],[-73.0065,9.7891],[-72.9674,10.0297],[-72.9404,10.1958],[-72.8693,10.4912],[-72.7391,10.7272],[-72.6901,10.8359],[-72.5723,10.9772],[-72.518,11.0539],[-72.4461,11.1143],[-72.2485,11.1964],[-72.0123,11.6019],[-71.9581,11.6664],[-71.7195,11.7268],[-71.5361,11.7741],[-71.4002,11.8235],[-71.3556,11.8497],[-71.3197,11.8619]]}},{"type":"Feature","properties":{},"geometry":{"type":"LineString","coordinates":[[-88.8941,15.8906],[-88.9372,15.8898],[-89.1136,15.9007],[-89.2328,15.8887],[-89.2375,15.8944],[-89.2276,16.1428],[-89.2124,16.5271],[-89.2013,16.809],[-89.1904,17.0847],[-89.1822,17.2912],[-89.1711,17.5723],[-89.1615,17.8148]]}},{"type":"Feature","properties":{},"geometry":{"type":"LineString","coordinates":[[-92.2351,14.5454],[-92.209,14.571],[-92.1871,14.6301],[-92.1599,14.691],[-92.1765,14.7613],[-92.1864,14.8184],[-92.1557,14.9013],[-92.1586,14.9636],[-92.1442,15.0019],[-92.0987,15.0267],[-92.0748,15.0742],[-92.2043,15.2377],[-92.2043,15.275],[-92.1872,15.3209],[-92.0822,15.4956],[-91.9572,15.7032],[-91.8194,15.9324],[-91.7366,16.0702],[-91.434,16.0704],[-91.2338,16.0706],[-90.9796,16.0708],[-90.7032,16.0711],[-90.522,16.0712],[-90.4472,16.0727],[-90.4599,16.1624],[-90.4501,16.2614],[-90.417,16.3513],[-90.417,16.391],[-90.4711,16.4396],[-90.5758,16.4678],[-90.6341,16.5107],[-90.6344,16.5651],[-90.66,16.6309],[-90.7107,16.7081],[-90.816,16.7871],[-90.9758,16.8678],[-91.1119,16.9762],[-91.2242,17.1123],[-91.3192,17.1998],[-91.3923,17.2364],[-91.4096,17.2559],[-91.1955,17.2541],[-90.993,17.2524],[-90.9916,17.4475],[-90.9904,17.6207],[-90.9891,17.8164],[-90.622,17.8161],[-90.1836,17.8157],[-89.7288,17.8153],[-89.3715,17.815],[-89.1615,17.8148],[-89.1624,17.902],[-89.1335,17.9708],[-89.0504,17.9997],[-88.9426,17.9396],[-88.8978,17.9145],[-88.8574,17.9288],[-88.8063,17.9655],[-88.7436,18.0716],[-88.5862,18.2905],[-88.523,18.4459],[-88.4613,18.4768],[-88.3724,18.4823],[-88.2957,18.4724],[-88.2489,18.4133],[-88.0396,18.4164],[-88.0418,18.1954],[-87.8256,18.1815]]}},{"type":"Feature","properties":{},"geometry":{"type":"LineString","coordinates":[[-84.3483,10.9799],[-84.2555,10.9007],[-84.205,10.8413],[-84.1966,10.8017],[-84.1683,10.7804],[-84.0962,10.7757],[-83.9193,10.7354],[-83.8112,10.7432],[-83.7129,10.7859],[-83.6589,10.8369],[-83.642,10.9172]]}}]}