{"type":"FeatureCollection","features":[{"type":"Feature","properties":{},"geometry":{"type":"MultiLineString","coordinates":[[[-79.6905,9.1036],[-79.7563,9.1117],[-79.8145,9.1527],[-79.9233,9.2674]]]}},{"type":"Feature","properties":{},"geometry":{"type":"MultiLineString","coordinates":[[[-84.7698,11.1175],[-84.9778,11.2075],[-85.2532,11.4525],[-85.8714,12.0978]]]}},{"type":"Feature","properties":{},"geometry":{"type":"MultiLineString","coordinates":[[[-91.2782,15.0175],[-91.2639,15.1574],[-91.3026,15.2366],[-91.2958,15.2702],[-91.2566,15.2846],[-91.0469,15.3081],[-90.8813,15.2876],[-90.6768,15.2358],[-90.5552,15.2251],[-90.4925,15.2857],[-90.4826,15.3158],[-90.534,15.3467],[-90.6465,15.3784],[-90.6764,15.4271],[-90.6235,15.4929],[-90.6114,15.5579],[-90.6401,15.6222],[-90.686,15.6604],[-90.7492,15.6727],[-90.7901,15.6967],[-90.8089,15.7326],[-90.7894,15.8172],[-90.7317,15.9507],[-90.6372,16.0192],[-90.506,16.0229],[-90.4469,16.0706],[-90.4599,16.1624],[-90.4501,16.2614],[-90.417,16.3513],[-90.417,16.391]]]}},{"type":"Feature","properties":{},"geometry":{"type":"MultiLineString","coordinates":[[[-86.844,13.4204],[-86.6392,13.5129],[-86.4923,13.6104],[-86.4111,13.6359],[-86.3465,13.6217],[-86.2816,13.5721],[-86.2165,13.4871],[-86.1477,13.4607],[-86.0752,13.4929],[-86.0042,13.5047],[-85.9346,13.4961],[-85.8563,13.5809],[-85.7694,13.7591],[-85.7277,13.8761],[-85.7312,13.9319],[-85.6819,13.9826],[-85.5798,14.0282],[-85.4771,14.1087],[-85.3738,14.2239],[-85.2842,14.2916],[-85.2083,14.3118],[-85.1795,14.3433],[-85.1976,14.386],[-85.1915,14.4466],[-85.1613,14.5252],[-85.1173,14.5706],[-85.0594,14.583],[-85.0365,14.6077],[-85.0487,14.6447],[-85.0373,14.6856],[-84.9851,14.7524],[-84.8604,14.8097],[-84.7892,14.7904],[-84.7298,14.7134],[-84.646,14.6611],[-84.5377,14.6334],[-84.4535,14.6437],[-84.3937,14.6918],[-84.3398,14.7063],[-84.2919,14.6874],[-84.2667,14.6981],[-84.264,14.7385],[-84.2392,14.7478],[-84.1924,14.726],[-84.1508,14.7204],[-84.1144,14.731],[-84.1003,14.7506],[-84.0929,14.7709],[-84.0658,14.7861],[-83.9723,14.7711],[-83.8673,14.7945],[-83.7509,14.8563],[-83.6736,14.8836],[-83.6355,14.8764],[-83.5897,14.9076],[-83.5365,14.977],[-83.415,15.0081],[-83.1575,14.9931]]]}},{"type":"Feature","properties":{},"geometry":{"type":"MultiLineString","coordinates":[[[-76.5073,1.9427],[-76.2813,1.8961],[-76.1788,1.8975],[-76.0975,1.9483],[-75.791,2.1179],[-75.6901,2.1983],[-75.6925,2.2461],[-75.6619,2.2972],[-75.5986,2.3517],[-75.5724,2.4011],[-75.5835,2.4455],[-75.5181,2.57],[-75.3763,2.7745],[-75.2924,2.9813],[-75.2662,3.1904],[-75.1592,3.4611],[-74.9712,3.7934],[-74.8581,4.0378],[-74.8201,4.1943],[-74.8236,4.2743],[-74.8687,4.2778],[-74.8611,4.4217],[-74.7705,4.8481],[-74.7556,5.1887],[-74.7232,5.3674],[-74.6683,5.4977],[-74.6463,5.6151],[-74.6572,5.7196],[-74.6406,5.8293],[-74.5964,5.9441],[-74.5758,6.0551],[-74.5785,6.1623],[-74.531,6.2647],[-74.433,6.3625],[-74.3847,6.4651],[-74.3859,6.5725],[-74.3171,6.6672],[-74.1782,6.7493],[-74.0535,6.8476],[-73.9431,6.9624],[-73.9002,7.0783],[-73.9249,7.1953],[-73.9068,7.3852],[-73.8461,7.6481],[-73.8298,7.8458],[-73.8582,7.9785],[-73.8517,8.0712],[-73.7897,8.1502]],[[-73.7965,8.1502],[-73.7652,8.3291],[-73.7841,8.5348],[-73.8429,8.8271],[-73.9425,8.9922],[-74.0831,9.03],[-74.2227,9.1036],[-74.3615,9.2128],[-74.4563,9.2613],[-74.5073,9.249],[-74.5587,9.2777],[-74.6106,9.3473],[-74.663,9.3911],[-74.7424,9.4182],[-74.7855,9.441],[-74.7953,9.4942],[-74.7861,9.5856],[-74.8056,9.6909],[-74.854,9.8102],[-74.8597,9.9087],[-74.8229,9.9864],[-74.8403,10.0603],[-74.912,10.1305],[-74.8924,10.2754],[-74.7815,10.4952],[-74.7267,10.6835],[-74.7281,10.8406],[-74.7613,10.9723],[-74.8446,11.1097]]]}},{"type":"Feature","properties":{},"geometry":{"type":"MultiLineString","coordinates":[[[-79.6905,9.1036],[-79.566,8.9679],[-79.5517,8.9244]],[[-79.9233,9.2674],[-79.9265,9.304],[-79.9151,9.3613]]]}},{"type":"Feature","properties":{},"geometry":{"type":"MultiLineString","coordinates":[[[-69.4182,-31.2828],[-69.3966,-31.2766],[-69.1846,-31.2688],[-69.0782,-31.2948],[-69.029,-31.3527],[-69.0036,-31.4147],[-69.0022,-31.4807],[-68.9438,-31.5186],[-68.8282,-31.5286],[-68.6933,-31.5146],[-68.5391,-31.4768],[-68.4509,-31.4715],[-68.4176,-31.5124],[-68.3673,-31.5728],[-68.3571,-31.6535],[-68.3701,-31.7746],[-68.3491,-31.8832],[-68.2941,-31.9792],[-68.2796,-32.0443],[-68.2697,-32.0724],[-68.2258,-32.0836],[-68.0891,-32.074],[-67.9736,-32.1116],[-67.8792,-32.1967],[-67.7436,-32.2496],[-67.5669,-32.27],[-67.4493,-32.3075],[-67.3618,-32.3895]],[[-84.7691,11.1177],[-84.4883,11.044],[-84.3483,10.9799],[-84.2555,10.9007],[-84.205,10.8413],[-84.1966,10.8017],[-84.1683,10.7804],[-84.0962,10.7757],[-83.9193,10.7354],[-83.8112,10.7432],[-83.7129,10.7859],[-83.6589,10.8369],[-83.6415,10.9148]],[[-86.1047,12.2076],[-85.8714,12.0978]]]}},{"type":"Feature","properties":{},"geometry":{"type":"MultiLineString","coordinates":[[[-90.417,16.391],[-90.4711,16.4396],[-90.5758,16.4678],[-90.6341,16.5107],[-90.6344,16.5651],[-90.66,16.6309],[-90.7107,16.7081],[-90.816,16.7871],[-90.9758,16.8678],[-91.1119,16.9762],[-91.2242,17.1123],[-91.3192,17.1998],[-91.3923,17.2364],[-91.4169,17.264],[-91.4175,17.2866],[-91.3995,17.3145],[-91.4136,17.3503],[-91.4661,17.3844],[-91.4963,17.4204],[-91.5042,17.4583],[-91.4883,17.4807],[-91.4488,17.4875],[-91.4495,17.5148],[-91.4905,17.5626],[-91.4732,17.5892],[-91.3978,17.5944],[-91.366,17.6267],[-91.3777,17.6861],[-91.4,17.7109],[-91.433,17.7012],[-91.4463,17.7147],[-91.4399,17.7513],[-91.4558,17.7791],[-91.494,17.7979],[-91.5242,17.7937],[-91.5462,17.7664],[-91.567,17.773],[-91.5867,17.8133],[-91.6129,17.8182],[-91.6455,17.7874],[-91.6515,17.7643],[-91.64,17.7501],[-91.6414,17.7359],[-91.6905,17.7315],[-91.7319,17.7616],[-91.7898,17.8441],[-91.8498,17.8776],[-91.9119,17.8619],[-91.9929,17.8874],[-92.0928,17.9543],[-92.1375,18.0126],[-92.127,18.0625],[-92.1443,18.1218],[-92.1894,18.1905],[-92.2123,18.2045]],[[-92.2123,18.2045],[-92.296,18.2554],[-92.4638,18.3165],[-92.5722,18.3354],[-92.6211,18.3122],[-92.6518,18.3331],[-92.6704,18.4305],[-92.6747,18.4807],[-92.6786,18.5431],[-92.6883,18.5782],[-92.7101,18.6117]],[[-92.2123,18.2045],[-92.2628,18.3606],[-92.3096,18.4261],[-92.3714,18.4672],[-92.4224,18.5306],[-92.4853,18.6648]]]}}]}